ONEWEB-0698             
1 61604U 24188L   25270.51287077  .00000397  00000+0  10846-2 0  9992
2 61604  87.8789  73.4144 0001208 132.9489 227.1740 13.11416861 50040
ONEWEB-0699             
1 61605U 24188M   25270.54572792  .00000156  00000+0  41030-3 0  9990
2 61605  87.8755  88.6247 0001666 110.4926 249.6381 13.10375768 48913
ONEWEB-0700             
1 61606U 24188N   25270.54738960  .00000212  00000+0  56971-3 0  9995
2 61606  87.8751  88.5073 0002215 101.9114 258.2261 13.10376884 48903
ONEWEB-0701             
1 61607U 24188P   25270.56398923  .00000718  00000+0  20214-2 0  9990
2 61607  87.8739  88.6240 0001808 117.0357 243.0955 13.10372874 48919
ONEWEB-0702             
1 61608U 24188Q   25270.48234823 -.00000450  00000+0 -13070-2 0  9997
2 61608  87.8730  73.3405 0002194 116.9470 243.1882 13.11415938 50056
ONEWEB-0704             
1 61609U 24188R   25270.47600868  .00000490  00000+0  13662-2 0  9992
2 61609  87.8766  88.5959 0002235 111.3679 248.7688 13.10375800 48889
ONEWEB-0705             
1 61610U 24188S   25270.55733178  .00000019  00000+0  16833-4 0  9996
2 61610  87.8751  88.6110 0002819  92.5071 267.6379 13.10375499 41063
ONEWEB-0706             
1 61611U 24188T   25270.54239884  .00000007  00000+0 -15053-4 0  9992
2 61611  87.8744  88.6405 0002185 102.0620 258.0752 13.10376264 48984
ONEWEB-0707             
1 61612U 24188U   25270.54905523  .00000321  00000+0  88329-3 0  9996
2 61612  87.8759  88.6069 0002053 101.5378 258.5980 13.10377009 48925
ONEWEB-0708             
1 61613U 24188V   25270.56731064  .00000651  00000+0  18285-2 0  9995
2 61613  87.8757  88.6447 0002382  94.3937 265.7463 13.10372293 48903
