[{"OBJECT_NAME":"ONEWEB-0698","OBJECT_ID":"2024-188L","EPOCH":"2025-09-27T12:18:32.034528","MEAN_MOTION":13.11416861,"ECCENTRICITY":0.00012085,"INCLINATION":87.8789,"RA_OF_ASC_NODE":73.4144,"ARG_OF_PERICENTER":132.9489,"MEAN_ANOMALY":227.174,"EPHEMERIS_TYPE":0,"CLASSIFICATION_TYPE":"U","NORAD_CAT_ID":61604,"ELEMENT_SET_NO":999,"REV_AT_EPOCH":5004,"BSTAR":0.0010846235,"MEAN_MOTION_DOT":3.97e-6,"MEAN_MOTION_DDOT":0},{"OBJECT_NAME":"ONEWEB-0699","OBJECT_ID":"2024-188M","EPOCH":"2025-09-27T13:05:50.892288","MEAN_MOTION":13.10375768,"ECCENTRICITY":0.00016665,"INCLINATION":87.8755,"RA_OF_ASC_NODE":88.6247,"ARG_OF_PERICENTER":110.4926,"MEAN_ANOMALY":249.6381,"EPHEMERIS_TYPE":0,"CLASSIFICATION_TYPE":"U","NORAD_CAT_ID":61605,"ELEMENT_SET_NO":999,"REV_AT_EPOCH":4891,"BSTAR":0.0004103037,"MEAN_MOTION_DOT":1.56e-6,"MEAN_MOTION_DDOT":0},{"OBJECT_NAME":"ONEWEB-0700","OBJECT_ID":"2024-188N","EPOCH":"2025-09-27T13:08:14.461440","MEAN_MOTION":13.10376884,"ECCENTRICITY":0.00022155,"INCLINATION":87.8751,"RA_OF_ASC_NODE":88.5073,"ARG_OF_PERICENTER":101.9114,"MEAN_ANOMALY":258.2261,"EPHEMERIS_TYPE":0,"CLASSIFICATION_TYPE":"U","NORAD_CAT_ID":61606,"ELEMENT_SET_NO":999,"REV_AT_EPOCH":4890,"BSTAR":0.00056971301,"MEAN_MOTION_DOT":2.12e-6,"MEAN_MOTION_DDOT":0},{"OBJECT_NAME":"ONEWEB-0701","OBJECT_ID":"2024-188P","EPOCH":"2025-09-27T13:32:08.669472","MEAN_MOTION":13.10372874,"ECCENTRICITY":0.0001808,"INCLINATION":87.8739,"RA_OF_ASC_NODE":88.624,"ARG_OF_PERICENTER":117.0357,"MEAN_ANOMALY":243.0955,"EPHEMERIS_TYPE":0,"CLASSIFICATION_TYPE":"U","NORAD_CAT_ID":61607,"ELEMENT_SET_NO":999,"REV_AT_EPOCH":4891,"BSTAR":0.0020213931,"MEAN_MOTION_DOT":7.18e-6,"MEAN_MOTION_DDOT":0},{"OBJECT_NAME":"ONEWEB-0702","OBJECT_ID":"2024-188Q","EPOCH":"2025-09-27T11:34:34.887072","MEAN_MOTION":13.11415938,"ECCENTRICITY":0.00021941,"INCLINATION":87.873,"RA_OF_ASC_NODE":73.3405,"ARG_OF_PERICENTER":116.947,"MEAN_ANOMALY":243.1882,"EPHEMERIS_TYPE":0,"CLASSIFICATION_TYPE":"U","NORAD_CAT_ID":61608,"ELEMENT_SET_NO":999,"REV_AT_EPOCH":5005,"BSTAR":-0.0013069967,"MEAN_MOTION_DOT":-4.5e-6,"MEAN_MOTION_DDOT":0},{"OBJECT_NAME":"ONEWEB-0704","OBJECT_ID":"2024-188R","EPOCH":"2025-09-27T11:25:27.149952","MEAN_MOTION":13.103758,"ECCENTRICITY":0.00022356,"INCLINATION":87.8766,"RA_OF_ASC_NODE":88.5959,"ARG_OF_PERICENTER":111.3679,"MEAN_ANOMALY":248.7688,"EPHEMERIS_TYPE":0,"CLASSIFICATION_TYPE":"U","NORAD_CAT_ID":61609,"ELEMENT_SET_NO":999,"REV_AT_EPOCH":4888,"BSTAR":0.0013662128,"MEAN_MOTION_DOT":4.9e-6,"MEAN_MOTION_DDOT":0},{"OBJECT_NAME":"ONEWEB-0705","OBJECT_ID":"2024-188S","EPOCH":"2025-09-27T13:22:33.465792","MEAN_MOTION":13.10375499,"ECCENTRICITY":0.00028197,"INCLINATION":87.8751,"RA_OF_ASC_NODE":88.611,"ARG_OF_PERICENTER":92.5071,"MEAN_ANOMALY":267.6379,"EPHEMERIS_TYPE":0,"CLASSIFICATION_TYPE":"U","NORAD_CAT_ID":61610,"ELEMENT_SET_NO":999,"REV_AT_EPOCH":4106,"BSTAR":1.6833313e-5,"MEAN_MOTION_DOT":1.9e-7,"MEAN_MOTION_DDOT":0},{"OBJECT_NAME":"ONEWEB-0706","OBJECT_ID":"2024-188T","EPOCH":"2025-09-27T13:01:03.259776","MEAN_MOTION":13.10376264,"ECCENTRICITY":0.00021855,"INCLINATION":87.8744,"RA_OF_ASC_NODE":88.6405,"ARG_OF_PERICENTER":102.062,"MEAN_ANOMALY":258.0752,"EPHEMERIS_TYPE":0,"CLASSIFICATION_TYPE":"U","NORAD_CAT_ID":61611,"ELEMENT_SET_NO":999,"REV_AT_EPOCH":4898,"BSTAR":-1.5053498e-5,"MEAN_MOTION_DOT":7.0e-8,"MEAN_MOTION_DDOT":0},{"OBJECT_NAME":"ONEWEB-0707","OBJECT_ID":"2024-188U","EPOCH":"2025-09-27T13:10:38.371872","MEAN_MOTION":13.10377009,"ECCENTRICITY":0.00020532,"INCLINATION":87.8759,"RA_OF_ASC_NODE":88.6069,"ARG_OF_PERICENTER":101.5378,"MEAN_ANOMALY":258.598,"EPHEMERIS_TYPE":0,"CLASSIFICATION_TYPE":"U","NORAD_CAT_ID":61612,"ELEMENT_SET_NO":999,"REV_AT_EPOCH":4892,"BSTAR":0.00088329022,"MEAN_MOTION_DOT":3.21e-6,"MEAN_MOTION_DDOT":0},{"OBJECT_NAME":"ONEWEB-0708","OBJECT_ID":"2024-188V","EPOCH":"2025-09-27T13:36:55.639296","MEAN_MOTION":13.10372293,"ECCENTRICITY":0.00023827,"INCLINATION":87.8757,"RA_OF_ASC_NODE":88.6447,"ARG_OF_PERICENTER":94.3937,"MEAN_ANOMALY":265.7463,"EPHEMERIS_TYPE":0,"CLASSIFICATION_TYPE":"U","NORAD_CAT_ID":61613,"ELEMENT_SET_NO":999,"REV_AT_EPOCH":4890,"BSTAR":0.0018285068,"MEAN_MOTION_DOT":6.51e-6,"MEAN_MOTION_DDOT":0}]
